{"type": "FeatureCollection", "features": [ {"type": "Feature", "properties": {"norad_id": 31985, "name": "FENGYUN 1C DEB", "group": "fengyun-1c-debris", "lat": 81.37909148153865, "lon": 179.85495968280296, "alt_km": 896.6920496361827, "timestamp": "2025-12-17T09:00:17.433432+00:00", "meta": {"OBJECT_NAME": "FENGYUN 1C DEB", "OBJECT_ID": "1999-025CPN", "EPOCH": "2025-12-13T23:34:50.116800", "MEAN_MOTION": 14.22977716, "ECCENTRICITY": 0.01504255, "INCLINATION": 98.2196, "RA_OF_ASC_NODE": 249.1254, "ARG_OF_PERICENTER": 243.0612, "MEAN_ANOMALY": 115.5134, "EPHEMERIS_TYPE": 0, "CLASSIFICATION_TYPE": "U", "NORAD_CAT_ID": 31985, "ELEMENT_SET_NO": 999, "REV_AT_EPOCH": 95628, "BSTAR": 0.00043991826, "MEAN_MOTION_DOT": 1.071e-05, "MEAN_MOTION_DDOT": 0}, "tle": {"line1": "1 31985U 99025CPN 25347.98252450  .00001071  00000+0  43992-3 0  9995", "line2": "2 31985  98.2196 249.1254 0150425 243.0612 115.5134 14.22977716956281"}}, "geometry": {"type": "Point", "coordinates": [179.85495968280296, 81.37909148153865]}}, {"type": "Feature", "properties": {"norad_id": 31987, "name": "FENGYUN 1C DEB", "group": "fengyun-1c-debris", "lat": -57.172267015305025, "lon": 130.98842358834062, "alt_km": 751.9484165977619, "timestamp": "2025-12-17T09:00:17.433442+00:00", "meta": {"OBJECT_NAME": "FENGYUN 1C DEB", "OBJECT_ID": "1999-025CPQ", "EPOCH": "2025-12-15T21:08:44.288160", "MEAN_MOTION": 14.44933533, "ECCENTRICITY": 0.00516418, "INCLINATION": 99.0395, "RA_OF_ASC_NODE": 323.6855, "ARG_OF_PERICENTER": 148.1982, "MEAN_ANOMALY": 241.7444, "EPHEMERIS_TYPE": 0, "CLASSIFICATION_TYPE": "U", "NORAD_CAT_ID": 31987, "ELEMENT_SET_NO": 999, "REV_AT_EPOCH": 96415, "BSTAR": 0.00070092849, "MEAN_MOTION_DOT": 2.433e-05, "MEAN_MOTION_DDOT": 0}, "tle": {"line1": "1 31987U 99025CPQ 25349.88106815  .00002433  00000+0  70093-3 0  9996", "line2": "2 31987  99.0395 323.6855 0051641 148.1982 241.7444 14.44933533964157"}}, "geometry": {"type": "Point", "coordinates": [130.98842358834062, -57.172267015305025]}}, {"type": "Feature", "properties": {"norad_id": 31989, "name": "FENGYUN 1C DEB", "group": "fengyun-1c-debris", "lat": 39.25636317982948, "lon": 44.887614750154334, "alt_km": 945.6724906948557, "timestamp": "2025-12-17T09:00:17.433452+00:00", "meta": {"OBJECT_NAME": "FENGYUN 1C DEB", "OBJECT_ID": "1999-025CPS", "EPOCH": "2025-12-15T16:11:35.170368", "MEAN_MOTION": 13.93591985, "ECCENTRICITY": 0.0115261, "INCLINATION": 99.2132, "RA_OF_ASC_NODE": 50.8156, "ARG_OF_PERICENTER": 291.0863, "MEAN_ANOMALY": 221.027, "EPHEMERIS_TYPE": 0, "CLASSIFICATION_TYPE": "U", "NORAD_CAT_ID": 31989, "ELEMENT_SET_NO": 999, "REV_AT_EPOCH": 93758, "BSTAR": 0.00049954957, "MEAN_MOTION_DOT": 6.47e-06, "MEAN_MOTION_DDOT": 0}, "tle": {"line1": "1 31989U 99025CPS 25349.67471262  .00000647  00000+0  49955-3 0  9994", "line2": "2 31989  99.2132  50.8156 0115261 291.0863 221.0270 13.93591985937587"}}, "geometry": {"type": "Point", "coordinates": [44.887614750154334, 39.25636317982948]}}, {"type": "Feature", "properties": {"norad_id": 31990, "name": "FENGYUN 1C DEB", "group": "fengyun-1c-debris", "lat": -69.91152631027495, "lon": 167.37101766566715, "alt_km": 1012.417484205077, "timestamp": "2025-12-17T09:00:17.433465+00:00", "meta": {"OBJECT_NAME": "FENGYUN 1C DEB", "OBJECT_ID": "1999-025CPT", "EPOCH": "2025-12-16T07:20:08.280960", "MEAN_MOTION": 13.57204188, "ECCENTRICITY": 0.02602939, "INCLINATION": 99.1604, "RA_OF_ASC_NODE": 12.5538, "ARG_OF_PERICENTER": 175.4339, "MEAN_ANOMALY": 250.6378, "EPHEMERIS_TYPE": 0, "CLASSIFICATION_TYPE": "U", "NORAD_CAT_ID": 31990, "ELEMENT_SET_NO": 999, "REV_AT_EPOCH": 62820, "BSTAR": 0.00028232559, "MEAN_MOTION_DOT": 2.11e-06, "MEAN_MOTION_DDOT": 0}, "tle": {"line1": "1 31990U 99025CPT 25350.30565140  .00000211  00000+0  28233-3 0  9990", "line2": "2 31990  99.1604  12.5538 0260293 175.4339 250.6378 13.57204188628209"}}, "geometry": {"type": "Point", "coordinates": [167.37101766566715, -69.91152631027495]}}, {"type": "Feature", "properties": {"norad_id": 31991, "name": "FENGYUN 1C DEB", "group": "fengyun-1c-debris", "lat": -24.661632523205263, "lon": -174.42264898193142, "alt_km": 961.6694835443323, "timestamp": "2025-12-17T09:00:17.433475+00:00", "meta": {"OBJECT_NAME": "FENGYUN 1C DEB", "OBJECT_ID": "1999-025CPU", "EPOCH": "2025-12-10T18:22:22.024416", "MEAN_MOTION": 13.6127752, "ECCENTRICITY": 0.02446272, "INCLINATION": 100.4864, "RA_OF_ASC_NODE": 173.6062, "ARG_OF_PERICENTER": 58.2006, "MEAN_ANOMALY": 304.2706, "EPHEMERIS_TYPE": 0, "CLASSIFICATION_TYPE": "U", "NORAD_CAT_ID": 31991, "ELEMENT_SET_NO": 999, "REV_AT_EPOCH": 62060, "BSTAR": 0.00020963887, "MEAN_MOTION_DOT": 1.45e-06, "MEAN_MOTION_DDOT": 0}, "tle": {"line1": "1 31991U 99025CPU 25344.76553269  .00000145  00000+0  20964-3 0  9992", "line2": "2 31991 100.4864 173.6062 0244627  58.2006 304.2706 13.61277520620609"}}, "geometry": {"type": "Point", "coordinates": [-174.42264898193142, -24.661632523205263]}}, {"type": "Feature", "properties": {"norad_id": 31992, "name": "FENGYUN 1C DEB", "group": "fengyun-1c-debris", "lat": -61.52728663805046, "lon": -31.974342347182482, "alt_km": 1096.4248165865774, "timestamp": "2025-12-17T09:00:17.433485+00:00", "meta": {"OBJECT_NAME": "FENGYUN 1C DEB", "OBJECT_ID": "1999-025CPV", "EPOCH": "2025-12-12T04:04:23.293056", "MEAN_MOTION": 13.22988689, "ECCENTRICITY": 0.05424019, "INCLINATION": 99.1658, "RA_OF_ASC_NODE": 306.1111, "ARG_OF_PERICENTER": 30.97, "MEAN_ANOMALY": 332.2249, "EPHEMERIS_TYPE": 0, "CLASSIFICATION_TYPE": "U", "NORAD_CAT_ID": 31992, "ELEMENT_SET_NO": 999, "REV_AT_EPOCH": 53867, "BSTAR": 0.001808457, "MEAN_MOTION_DOT": 1.63e-05, "MEAN_MOTION_DDOT": 0}, "tle": {"line1": "1 31992U 99025CPV 25346.16971404  .00001630  00000+0  18085-2 0  9994", "line2": "2 31992  99.1658 306.1111 0542401  30.9700 332.2249 13.22988689538672"}}, "geometry": {"type": "Point", "coordinates": [-31.974342347182482, -61.52728663805046]}}, {"type": "Feature", "properties": {"norad_id": 31993, "name": "FENGYUN 1C DEB", "group": "fengyun-1c-debris", "lat": 47.70302435397981, "lon": -47.15426742541038, "alt_km": 1059.4825218175947, "timestamp": "2025-12-17T09:00:17.433495+00:00", "meta": {"OBJECT_NAME": "FENGYUN 1C DEB", "OBJECT_ID": "1999-025CPW", "EPOCH": "2025-12-14T04:46:59.917440", "MEAN_MOTION": 13.27456305, "ECCENTRICITY": 0.04218085, "INCLINATION": 99.2406, "RA_OF_ASC_NODE": 320.3102, "ARG_OF_PERICENTER": 131.7316, "MEAN_ANOMALY": 232.0693, "EPHEMERIS_TYPE": 0, "CLASSIFICATION_TYPE": "U", "NORAD_CAT_ID": 31993, "ELEMENT_SET_NO": 999, "REV_AT_EPOCH": 88962, "BSTAR": 0.0019620406, "MEAN_MOTION_DOT": 1.397e-05, "MEAN_MOTION_DDOT": 0}, "tle": {"line1": "1 31993U 99025CPW 25348.19930460  .00001397  00000+0  19620-2 0  9993", "line2": "2 31993  99.2406 320.3102 0421808 131.7316 232.0693 13.27456305889627"}}, "geometry": {"type": "Point", "coordinates": [-47.15426742541038, 47.70302435397981]}}, {"type": "Feature", "properties": {"norad_id": 31994, "name": "FENGYUN 1C DEB", "group": "fengyun-1c-debris", "lat": -49.95657057172707, "lon": -4.485573620636339, "alt_km": 1033.4778555895382, "timestamp": "2025-12-17T09:00:17.433506+00:00", "meta": {"OBJECT_NAME": "FENGYUN 1C DEB", "OBJECT_ID": "1999-025CPX", "EPOCH": "2025-12-16T10:53:18.642336", "MEAN_MOTION": 13.95758923, "ECCENTRICITY": 0.01624422, "INCLINATION": 98.5391, "RA_OF_ASC_NODE": 344.3613, "ARG_OF_PERICENTER": 135.7926, "MEAN_ANOMALY": 225.635, "EPHEMERIS_TYPE": 0, "CLASSIFICATION_TYPE": "U", "NORAD_CAT_ID": 31994, "ELEMENT_SET_NO": 999, "REV_AT_EPOCH": 56848, "BSTAR": -7.9901844e-05, "MEAN_MOTION_DOT": -1.6e-06, "MEAN_MOTION_DDOT": 0}, "tle": {"line1": "1 31994U 99025CPX 25350.45368799 -.00000160  00000+0 -79902-4 0  9996", "line2": "2 31994  98.5391 344.3613 0162442 135.7926 225.6350 13.95758923568485"}}, "geometry": {"type": "Point", "coordinates": [-4.485573620636339, -49.95657057172707]}}, {"type": "Feature", "properties": {"norad_id": 31997, "name": "FENGYUN 1C DEB", "group": "fengyun-1c-debris", "lat": 53.970920391998334, "lon": 18.381566746509407, "alt_km": 1217.610729538209, "timestamp": "2025-12-17T09:00:17.433516+00:00", "meta": {"OBJECT_NAME": "FENGYUN 1C DEB", "OBJECT_ID": "1999-025CQA", "EPOCH": "2025-12-15T21:25:47.322912", "MEAN_MOTION": 13.60688194, "ECCENTRICITY": 0.02902938, "INCLINATION": 102.5107, "RA_OF_ASC_NODE": 34.2632, "ARG_OF_PERICENTER": 266.7026, "MEAN_ANOMALY": 90.0859, "EPHEMERIS_TYPE": 0, "CLASSIFICATION_TYPE": "U", "NORAD_CAT_ID": 31997, "ELEMENT_SET_NO": 999, "REV_AT_EPOCH": 61726, "BSTAR": 0.0019849043, "MEAN_MOTION_DOT": 1.913e-05, "MEAN_MOTION_DDOT": 0}, "tle": {"line1": "1 31997U 99025CQA 25349.89290883  .00001913  00000+0  19849-2 0  9990", "line2": "2 31997 102.5107  34.2632 0290293 266.7026  90.0859 13.60688194617260"}}, "geometry": {"type": "Point", "coordinates": [18.381566746509407, 53.970920391998334]}}, {"type": "Feature", "properties": {"norad_id": 32086, "name": "FENGYUN 1C DEB", "group": "fengyun-1c-debris", "lat": 72.68779768607264, "lon": 14.517379728740812, "alt_km": 845.415643112995, "timestamp": "2025-12-17T09:00:17.433526+00:00", "meta": {"OBJECT_NAME": "FENGYUN 1C DEB", "OBJECT_ID": "1999-025CQC", "EPOCH": "2025-12-16T22:06:54.295200", "MEAN_MOTION": 13.68913928, "ECCENTRICITY": 0.02996776, "INCLINATION": 99.2699, "RA_OF_ASC_NODE": 45.6784, "ARG_OF_PERICENTER": 124.7484, "MEAN_ANOMALY": 238.227, "EPHEMERIS_TYPE": 0, "CLASSIFICATION_TYPE": "U", "NORAD_CAT_ID": 32086, "ELEMENT_SET_NO": 999, "REV_AT_EPOCH": 61838, "BSTAR": 0.0015487703, "MEAN_MOTION_DOT": 1.789e-05, "MEAN_MOTION_DDOT": 0}, "tle": {"line1": "1 32086U 99025CQC 25350.92146175  .00001789  00000+0  15488-2 0  9996", "line2": "2 32086  99.2699  45.6784 0299677 124.7484 238.2270 13.68913928618389"}}, "geometry": {"type": "Point", "coordinates": [14.517379728740812, 72.68779768607264]}}]}